{
  "type": "FeatureCollection",
  "features": [
    {
      "type": "Feature",
      "properties": {
        "norad_id": 31480,
        "name": "FENGYUN 1C DEB",
        "group": "fengyun-1c-debris",
        "lat": -4.378338300479123,
        "lon": 8.199634226948945,
        "alt_km": 819.3582476231959,
        "timestamp": "2025-12-02T15:49:07.472633+00:00",
        "meta_object_name": "FENGYUN 1C DEB",
        "meta_object_id": "1999-025BVU",
        "meta_epoch": "2025-12-02T01:04:32.657952",
        "meta_mean_motion": 13.89693424,
        "meta_eccentricity": 0.03467359,
        "meta_inclination": 98.3385,
        "meta_ra_of_asc_node": 188.2912,
        "meta_arg_of_pericenter": 251.1282,
        "meta_mean_anomaly": 105.1989,
        "meta_ephemeris_type": 0,
        "meta_classification_type": "U",
        "meta_norad_cat_id": 31480,
        "meta_element_set_no": 999,
        "meta_rev_at_epoch": 93247,
        "meta_bstar": 0.0041309486,
        "meta_mean_motion_dot": 8.19e-05,
        "meta_mean_motion_ddot": 0,
        "tle_line1": "1 31480U 99025BVU 25336.04482243  .00008190  00000+0  41309-2 0  9993",
        "tle_line2": "2 31480  98.3385 188.2912 0346735 251.1282 105.1989 13.89693424932471"
      },
      "geometry": {
        "type": "Point",
        "coordinates": [
          8.199634226948945,
          -4.378338300479123
        ]
      }
    },
    {
      "type": "Feature",
      "properties": {
        "norad_id": 31482,
        "name": "FENGYUN 1C DEB",
        "group": "fengyun-1c-debris",
        "lat": 35.35303627204197,
        "lon": -25.20678599675106,
        "alt_km": 762.6200293674283,
        "timestamp": "2025-12-02T15:49:07.472644+00:00",
        "meta_object_name": "FENGYUN 1C DEB",
        "meta_object_id": "1999-025BVW",
        "meta_epoch": "2025-12-02T05:53:42.254880",
        "meta_mean_motion": 14.35578741,
        "meta_eccentricity": 0.00891945,
        "meta_inclination": 98.3825,
        "meta_ra_of_asc_node": 340.3958,
        "meta_arg_of_pericenter": 313.9076,
        "meta_mean_anomaly": 105.2624,
        "meta_ephemeris_type": 0,
        "meta_classification_type": "U",
        "meta_norad_cat_id": 31482,
        "meta_element_set_no": 999,
        "meta_rev_at_epoch": 96979,
        "meta_bstar": 0.001020033,
        "meta_mean_motion_dot": 3.031e-05,
        "meta_mean_motion_ddot": 0,
        "tle_line1": "1 31482U 99025BVW 25336.24562795  .00003031  00000+0  10200-2 0  9993",
        "tle_line2": "2 31482  98.3825 340.3958 0089194 313.9076 105.2624 14.35578741969792"
      },
      "geometry": {
        "type": "Point",
        "coordinates": [
          -25.20678599675106,
          35.35303627204197
        ]
      }
    },
    {
      "type": "Feature",
      "properties": {
        "norad_id": 31483,
        "name": "FENGYUN 1C DEB",
        "group": "fengyun-1c-debris",
        "lat": -51.52610439017694,
        "lon": 86.69920633529266,
        "alt_km": 762.0670927768715,
        "timestamp": "2025-12-02T15:49:07.472655+00:00",
        "meta_object_name": "FENGYUN 1C DEB",
        "meta_object_id": "1999-025BVX",
        "meta_epoch": "2025-12-02T02:55:05.369952",
        "meta_mean_motion": 14.15813521,
        "meta_eccentricity": 0.01197057,
        "meta_inclination": 102.5028,
        "meta_ra_of_asc_node": 282.161,
        "meta_arg_of_pericenter": 247.6762,
        "meta_mean_anomaly": 127.473,
        "meta_ephemeris_type": 0,
        "meta_classification_type": "U",
        "meta_norad_cat_id": 31483,
        "meta_element_set_no": 999,
        "meta_rev_at_epoch": 94556,
        "meta_bstar": 0.002931296,
        "meta_mean_motion_dot": 6.107e-05,
        "meta_mean_motion_ddot": 0,
        "tle_line1": "1 31483U 99025BVX 25336.12158993  .00006107  00000+0  29313-2 0  9994",
        "tle_line2": "2 31483 102.5028 282.1610 0119705 247.6762 127.4730 14.15813521945560"
      },
      "geometry": {
        "type": "Point",
        "coordinates": [
          86.69920633529266,
          -51.52610439017694
        ]
      }
    },
    {
      "type": "Feature",
      "properties": {
        "norad_id": 31484,
        "name": "FENGYUN 1C DEB",
        "group": "fengyun-1c-debris",
        "lat": 75.79831879493413,
        "lon": 144.7762633462402,
        "alt_km": 710.0776808185828,
        "timestamp": "2025-12-02T15:49:07.472666+00:00",
        "meta_object_name": "FENGYUN 1C DEB",
        "meta_object_id": "1999-025BVY",
        "meta_epoch": "2025-12-01T06:14:16.664640",
        "meta_mean_motion": 14.4971956,
        "meta_eccentricity": 0.00824182,
        "meta_inclination": 101.8049,
        "meta_ra_of_asc_node": 267.0929,
        "meta_arg_of_pericenter": 183.373,
        "meta_mean_anomaly": 176.6905,
        "meta_ephemeris_type": 0,
        "meta_classification_type": "U",
        "meta_norad_cat_id": 31484,
        "meta_element_set_no": 999,
        "meta_rev_at_epoch": 64071,
        "meta_bstar": 0.0059253262,
        "meta_mean_motion_dot": 0.00023837,
        "meta_mean_motion_ddot": 0,
        "tle_line1": "1 31484U 99025BVY 25335.25991510  .00023837  00000+0  59253-2 0  9993",
        "tle_line2": "2 31484 101.8049 267.0929 0082418 183.3730 176.6905 14.49719560640716"
      },
      "geometry": {
        "type": "Point",
        "coordinates": [
          144.7762633462402,
          75.79831879493413
        ]
      }
    },
    {
      "type": "Feature",
      "properties": {
        "norad_id": 31485,
        "name": "FENGYUN 1C DEB",
        "group": "fengyun-1c-debris",
        "lat": -34.561700165941524,
        "lon": -27.63904830348064,
        "alt_km": 1297.3515069979876,
        "timestamp": "2025-12-02T15:49:07.472677+00:00",
        "meta_object_name": "FENGYUN 1C DEB",
        "meta_object_id": "1999-025BVZ",
        "meta_epoch": "2025-12-01T08:15:22.819968",
        "meta_mean_motion": 13.39956688,
        "meta_eccentricity": 0.04452941,
        "meta_inclination": 102.7194,
        "meta_ra_of_asc_node": 159.6611,
        "meta_arg_of_pericenter": 343.4997,
        "meta_mean_anomaly": 15.2018,
        "meta_ephemeris_type": 0,
        "meta_classification_type": "U",
        "meta_norad_cat_id": 31485,
        "meta_element_set_no": 999,
        "meta_rev_at_epoch": 90292,
        "meta_bstar": 0.0036679606,
        "meta_mean_motion_dot": 3.503e-05,
        "meta_mean_motion_ddot": 0,
        "tle_line1": "1 31485U 99025BVZ 25335.34401412  .00003503  00000+0  36680-2 0  9998",
        "tle_line2": "2 31485 102.7194 159.6611 0445294 343.4997  15.2018 13.39956688902920"
      },
      "geometry": {
        "type": "Point",
        "coordinates": [
          -27.63904830348064,
          -34.561700165941524
        ]
      }
    },
    {
      "type": "Feature",
      "properties": {
        "norad_id": 31487,
        "name": "FENGYUN 1C DEB",
        "group": "fengyun-1c-debris",
        "lat": 46.963679581683,
        "lon": 127.97443480889005,
        "alt_km": 878.4385925633087,
        "timestamp": "2025-12-02T15:49:07.472695+00:00",
        "meta_object_name": "FENGYUN 1C DEB",
        "meta_object_id": "1999-025BWB",
        "meta_epoch": "2025-12-02T06:08:26.132928",
        "meta_mean_motion": 13.97663121,
        "meta_eccentricity": 0.01197441,
        "meta_inclination": 102.4135,
        "meta_ra_of_asc_node": 141.0753,
        "meta_arg_of_pericenter": 331.4925,
        "meta_mean_anomaly": 207.6466,
        "meta_ephemeris_type": 0,
        "meta_classification_type": "U",
        "meta_norad_cat_id": 31487,
        "meta_element_set_no": 999,
        "meta_rev_at_epoch": 94265,
        "meta_bstar": 0.0016318074,
        "meta_mean_motion_dot": 2.376e-05,
        "meta_mean_motion_ddot": 0,
        "tle_line1": "1 31487U 99025BWB 25336.25585802  .00002376  00000+0  16318-2 0  9990",
        "tle_line2": "2 31487 102.4135 141.0753 0119744 331.4925 207.6466 13.97663121942651"
      },
      "geometry": {
        "type": "Point",
        "coordinates": [
          127.97443480889005,
          46.963679581683
        ]
      }
    },
    {
      "type": "Feature",
      "properties": {
        "norad_id": 31491,
        "name": "FENGYUN 1C DEB",
        "group": "fengyun-1c-debris",
        "lat": -78.60280580138834,
        "lon": 10.403420883078638,
        "alt_km": 810.2491562495634,
        "timestamp": "2025-12-02T15:49:07.472707+00:00",
        "meta_object_name": "FENGYUN 1C DEB",
        "meta_object_id": "1999-025BWE",
        "meta_epoch": "2025-11-29T05:14:19.576896",
        "meta_mean_motion": 14.17099923,
        "meta_eccentricity": 0.00534374,
        "meta_inclination": 99.302,
        "meta_ra_of_asc_node": 241.2001,
        "meta_arg_of_pericenter": 306.7475,
        "meta_mean_anomaly": 52.8798,
        "meta_ephemeris_type": 0,
        "meta_classification_type": "U",
        "meta_norad_cat_id": 31491,
        "meta_element_set_no": 999,
        "meta_rev_at_epoch": 63536,
        "meta_bstar": 0.0019103725,
        "meta_mean_motion_dot": 3.854e-05,
        "meta_mean_motion_ddot": 0,
        "tle_line1": "1 31491U 99025BWE 25333.21828214  .00003854  00000+0  19104-2 0  9993",
        "tle_line2": "2 31491  99.3020 241.2001 0053437 306.7475  52.8798 14.17099923635364"
      },
      "geometry": {
        "type": "Point",
        "coordinates": [
          10.403420883078638,
          -78.60280580138834
        ]
      }
    }
  ]
}